NORAD_CAT_ID,OBJECT_NAME,OBJECT_TYPE,EPOCH,MEAN_MOTION,ECCENTRICITY,INCLINATION,RA_OF_ASC_NODE,ARG_OF_PERICENTER,MEAN_ANOMALY,BSTAR,MEAN_MOTION_DOT,MEAN_MOTION_DDOT,TLE_LINE0,TLE_LINE1,TLE_LINE2,SEMIMAJOR_AXIS,PERIOD,APOGEE,PERIGEE,DECAYED
52565.0,STARLINK-3911,PAYLOAD,2024-01-12 02:47:50,15.08828456,0.0001158,53.2183,54.673,107.1006,253.0113,5.7894e-05,6.33e-06,0.0,0 STARLINK-3911,1 52565U 22051AJ  24012.11655838  .00000633  00000-0  57894-4 0  9998,2 52565  53.2183  54.6730 0001158 107.1006 253.0113 15.08828456 92757,6917.916,95.438,540.582,538.98,0.0
52565.0,STARLINK-3911,PAYLOAD,2024-01-12 07:33:59,15.0883388,0.0001528,53.2164,53.7804,103.1428,256.9734,9.3336e-05,1.198e-05,0.0,0 STARLINK-3911,1 52565U 22051AJ  24012.31527592  .00001198  00000-0  93336-4 0  9993,2 52565  53.2164  53.7804 0001528 103.1428 256.9734 15.08833880 92784,6917.899,95.438,540.821,538.707,0.0
52565.0,STARLINK-3911,PAYLOAD,2024-01-13 09:00:09,15.08842534,0.0001758,53.2166,49.0231,103.3982,256.7207,-1.9559e-06,-3.19e-06,0.0,0 STARLINK-3911,1 52565U 22051AJ  24013.37511558 -.00000319  00000-0 -19559-5 0  9997,2 52565  53.2166  49.0231 0001758 103.3982 256.7207 15.08842534 92947,6917.873,95.437,540.954,538.521,0.0
52565.0,STARLINK-3911,PAYLOAD,2024-01-13 12:10:56,15.08844217,0.0001812,53.2158,48.426,113.7655,246.3527,6.3026e-05,7.15e-06,0.0,0 STARLINK-3911,1 52565U 22051AJ  24013.50759449  .00000715  00000-0  63026-4 0  9990,2 52565  53.2158  48.4260 0001812 113.7655 246.3527 15.08844217 92890,6917.867,95.437,540.986,538.479,0.0
52565.0,STARLINK-3911,PAYLOAD,2024-01-13 23:18:38,15.08833481,0.0001589,53.2144,46.3427,100.4338,259.6833,0.00014863,2.078e-05,0.0,0 STARLINK-3911,1 52565U 22051AJ  24013.97128219  .00002078  00000-0  14863-3 0  9994,2 52565  53.2144  46.3427 0001589 100.4338 259.6833 15.08833481 93034,6917.9,95.438,540.865,538.666,0.0
52565.0,STARLINK-3911,PAYLOAD,2024-01-14 08:50:57,15.08842278,0.0001798,53.2152,44.5575,113.2446,246.8735,0.00019551,2.825e-05,0.0,0 STARLINK-3911,1 52565U 22051AJ  24014.36871719  .00002825  00000-0  19551-3 0  9997,2 52565  53.2152  44.5575 0001798 113.2446 246.8735 15.08842278 93090,6917.873,95.437,540.982,538.495,0.0
52565.0,STARLINK-3911,PAYLOAD,2024-01-15 11:52:29,15.08853464,0.0001761,53.2161,39.5037,111.4685,248.6495,0.00022915,3.362e-05,0.0,0 STARLINK-3911,1 52565U 22051AJ  24015.49479129  .00003362  00000-0  22915-3 0  9996,2 52565  53.2161  39.5037 0001761 111.4685 248.6495 15.08853464 93263,6917.839,95.437,540.922,538.486,0.0
52565.0,STARLINK-3911,PAYLOAD,2024-01-16 02:10:59,15.08835813,0.000157,53.2167,36.8199,100.2424,259.8746,1.0412e-05,-1.22e-06,0.0,0 STARLINK-3911,1 52565U 22051AJ  24016.09096136 -.00000122  00000-0  10412-4 0  9998,2 52565  53.2167  36.8199 0001570 100.2424 259.8746 15.08835813 93354,6917.893,95.438,540.844,538.672,0.0
52565.0,STARLINK-3911,PAYLOAD,2024-01-16 10:07:54,15.08833567,0.0001559,53.2171,35.3336,98.0211,262.0958,3.3876e-06,-2.34e-06,0.0,0 STARLINK-3911,1 52565U 22051AJ  24016.42216401 -.00000234  00000-0  33876-5 0  9998,2 52565  53.2171  35.3336 0001559  98.0211 262.0958 15.08833567 93334,6917.9,95.438,540.844,538.687,0.0
52565.0,STARLINK-3911,PAYLOAD,2024-01-17 08:23:18,15.08844524,0.0001652,53.2168,31.1813,90.23,269.8882,0.00021046,3.063e-05,0.0,0 STARLINK-3911,1 52565U 22051AJ  24017.34952320  .00003063  00000-0  21046-3 0  9993,2 52565  53.2168  31.1813 0001652  90.2300 269.8882 15.08844524 93540,6917.867,95.437,540.874,538.589,0.0
52565.0,STARLINK-3911,PAYLOAD,2024-01-17 22:41:47,15.0883884,0.0001658,53.2185,28.5058,98.4058,261.7122,0.00024052,3.542e-05,0.0,0 STARLINK-3911,1 52565U 22051AJ  24017.94568826  .00003542  00000-0  24052-3 0  9995,2 52565  53.2185  28.5058 0001658  98.4058 261.7122 15.08838840 93638,6917.884,95.438,540.896,538.602,0.0
52565.0,STARLINK-3911,PAYLOAD,2024-01-18 08:14:06,15.08842949,0.0001662,53.2167,26.7271,90.4729,269.6454,0.00025431,3.762e-05,0.0,0 STARLINK-3911,1 52565U 22051AJ  24018.34312835  .00003762  00000-0  25431-3 0  9993,2 52565  53.2167  26.7271 0001662  90.4729 269.6454 15.08842949 93626,6917.871,95.437,540.886,538.587,0.0
52565.0,STARLINK-3911,PAYLOAD,2024-01-19 09:40:15,15.08866359,0.0001675,53.2166,21.957,93.3089,266.8095,0.00069095,0.00010733,0.0,0 STARLINK-3911,1 52565U 22051AJ  24019.40295690  .00010733  00000-0  69095-3 0  9990,2 52565  53.2166  21.9570 0001675  93.3089 266.8095 15.08866359 93855,6917.8,95.436,540.824,538.506,0.0
52565.0,STARLINK-3911,PAYLOAD,2024-01-20 03:09:30,15.08844825,0.0001509,53.2166,18.6911,95.2059,264.9105,0.00011838,1.597e-05,0.0,0 STARLINK-3911,1 52565U 22051AJ  24020.13160153  .00001597  00000-0  11838-3 0  9997,2 52565  53.2166  18.6911 0001509  95.2059 264.9105 15.08844825 93968,6917.866,95.437,540.775,538.687,0.0
52565.0,STARLINK-3911,PAYLOAD,2024-01-20 06:20:16,15.08849287,0.0001523,53.2163,18.0962,89.7701,270.3465,0.00029207,4.365e-05,0.0,0 STARLINK-3911,1 52565U 22051AJ  24020.26408079  .00004365  00000-0  29207-3 0  9998,2 52565  53.2163  18.0962 0001523  89.7701 270.3465 15.08849287 93915,6917.852,95.437,540.771,538.663,0.0
52565.0,STARLINK-3911,PAYLOAD,2024-01-21 03:00:17,15.08838916,0.0001552,53.216,14.2298,92.3133,267.8037,7.0426e-05,8.33e-06,0.0,0 STARLINK-3911,1 52565U 22051AJ  24021.12520529  .00000833  00000-0  70426-4 0  9995,2 52565  53.2160  14.2298 0001552  92.3133 267.8037 15.08838916 94119,6917.884,95.438,540.822,538.675,0.0
52565.0,STARLINK-3911,PAYLOAD,2024-01-21 04:35:40,15.08838574,0.0001543,53.2161,13.9326,93.33,266.7868,9.4435e-05,1.215e-05,0.0,0 STARLINK-3911,1 52565U 22051AJ  24021.19144561  .00001215  00000-0  94435-4 0  9991,2 52565  53.2161  13.9326 0001543  93.3300 266.7868 15.08838574 94058,6917.885,95.438,540.817,538.682,0.0
52565.0,STARLINK-3911,PAYLOAD,2024-01-22 04:26:27,15.08846025,0.0001549,53.2163,9.4721,96.3624,263.7545,0.00026616,3.951e-05,0.0,0 STARLINK-3911,1 52565U 22051AJ  24022.18504485  .00003951  00000-0  26616-3 0  9990,2 52565  53.2163   9.4721 0001549  96.3624 263.7545 15.08846025 94270,6917.862,95.437,540.799,538.655,0.0
52565.0,STARLINK-3911,PAYLOAD,2024-01-22 06:01:50,15.08848657,0.0001597,53.2163,9.1745,99.4799,260.6374,0.00036777,5.571e-05,0.0,0 STARLINK-3911,1 52565U 22051AJ  24022.25128413  .00005571  00000-0  36777-3 0  9990,2 52565  53.2163   9.1745 0001597  99.4799 260.6374 15.08848657 94216,6917.854,95.437,540.824,538.614,0.0
52565.0,STARLINK-3911,PAYLOAD,2024-01-23 02:41:51,15.0884015,0.0001837,53.2175,5.3107,119.158,240.9596,7.8315e-05,9.58e-06,0.0,0 STARLINK-3911,1 52565U 22051AJ  24023.11240639  .00000958  00000-0  78315-4 0  9990,2 52565  53.2175   5.3107 0001837 119.1580 240.9596 15.08840150 94413,6917.88,95.438,541.016,538.474,0.0
52565.0,STARLINK-3911,PAYLOAD,2024-01-23 04:17:15,15.0884081,0.0001803,53.2178,5.0138,119.4737,240.6435,8.7329e-05,1.102e-05,0.0,0 STARLINK-3911,1 52565U 22051AJ  24023.17864630  .00001102  00000-0  87329-4 0  9996,2 52565  53.2178   5.0138 0001803 119.4737 240.6435 15.08840810 94352,6917.878,95.438,540.99,538.496,0.0
52565.0,STARLINK-3911,PAYLOAD,2024-01-24 04:08:02,15.08842285,0.0001895,53.2186,0.5532,123.1625,236.9549,5.5374e-05,5.93e-06,0.0,0 STARLINK-3911,1 52565U 22051AJ  24024.17224595  .00000593  00000-0  55374-4 0  9995,2 52565  53.2186   0.5532 0001895 123.1625 236.9549 15.08842285 94574,6917.873,95.437,541.049,538.427,0.0
52565.0,STARLINK-3911,PAYLOAD,2024-01-24 05:43:25,15.08847068,0.0001436,53.2179,0.2545,92.5431,267.5726,0.00014504,2.022e-05,0.0,0 STARLINK-3911,1 52565U 22051AJ  24024.23848669  .00002022  00000-0  14504-3 0  9994,2 52565  53.2179   0.2545 0001436  92.5431 267.5726 15.08847068 94517,6917.859,95.437,540.717,538.73,0.0
52565.0,STARLINK-3911,PAYLOAD,2024-01-25 03:58:50,15.08833227,0.000175,53.2178,356.096,57.4322,302.6839,0.00055405,8.539e-05,0.0,0 STARLINK-3911,1 52565U 22051AJ  24025.16585834  .00008539  00000-0  55405-3 0  9993,2 52565  53.2178 356.0960 0001750  57.4322 302.6839 15.08833227 94728,6917.901,95.438,540.977,538.555,0.0
52565.0,STARLINK-3911,PAYLOAD,2024-01-25 05:34:12,15.08846668,0.0001468,53.2182,355.7924,91.5696,268.5464,0.00024165,3.561e-05,0.0,0 STARLINK-3911,1 52565U 22051AJ  24025.23208883  .00003561  00000-0  24165-3 0  9996,2 52565  53.2182 355.7924 0001468  91.5696 268.5464 15.08846668 94736,6917.86,95.437,540.741,538.709,0.0
52565.0,STARLINK-3911,PAYLOAD,2024-01-26 03:49:37,15.08835866,0.0001555,53.2175,351.6299,81.1205,278.9963,-7.4335e-06,-4.06e-06,0.0,0 STARLINK-3911,1 52565U 22051AJ  24026.15945817 -.00000406  00000-0 -74335-5 0  9996,2 52565  53.2175 351.6299 0001555  81.1205 278.9963 15.08835866 94878,6917.893,95.438,540.834,538.682,0.0
52565.0,STARLINK-3911,PAYLOAD,2024-01-27 03:40:23,15.08847276,0.000191,53.2207,347.1647,70.4629,289.657,0.0002142,3.123e-05,0.0,0 STARLINK-3911,1 52565U 22051AJ  24027.15305504  .00003123  00000-0  21420-3 0  9992,2 52565  53.2207 347.1647 0001910  70.4629 289.6570 15.08847276 95026,6917.858,95.437,541.044,538.402,0.0
52565.0,STARLINK-3911,PAYLOAD,2024-01-27 06:51:10,15.08847963,0.0001811,53.2208,346.5674,78.0716,282.0479,0.00033592,5.063e-05,0.0,0 STARLINK-3911,1 52565U 22051AJ  24027.28553459  .00005063  00000-0  33592-3 0  9998,2 52565  53.2208 346.5674 0001811  78.0716 282.0479 15.08847963 94972,6917.856,95.437,540.974,538.468,0.0
52565.0,STARLINK-3911,PAYLOAD,2024-01-28 01:55:47,15.08841584,0.0002081,53.2201,342.9957,126.4105,233.7079,0.00010201,1.336e-05,0.0,0 STARLINK-3911,1 52565U 22051AJ  24028.08041399  .00001336  00000-0  10201-3 0  9993,2 52565  53.2201 342.9957 0002081 126.4105 233.7079 15.08841584 95163,6917.876,95.437,541.18,538.301,0.0
52565.0,STARLINK-3911,PAYLOAD,2024-01-29 03:21:57,15.08848763,0.0001627,53.2193,338.2452,98.4478,261.6698,4.8689e-06,-2.11e-06,0.0,0 STARLINK-3911,1 52565U 22051AJ  24029.14025378 -.00000211  00000-0  48689-5 0  9995,2 52565  53.2193 338.2452 0001627  98.4478 261.6698 15.08848763 95328,6917.854,95.437,540.844,538.593,0.0
